{"type": "FeatureCollection", "features": [ {"type": "Feature", "properties": {"norad_id": 54234, "name": "NOAA 21 (JPSS-2)", "group": "weather", "lat": 34.34919129148074, "lon": 120.81455472631923, "alt_km": 825.4839670877309, "timestamp": "2025-12-24T14:43:28.638746+00:00", "meta": {"OBJECT_NAME": "NOAA 21 (JPSS-2)", "OBJECT_ID": "2022-150A", "EPOCH": "2025-12-24T05:35:06.616608", "MEAN_MOTION": 14.19527238, "ECCENTRICITY": 0.00016973, "INCLINATION": 98.7477, "RA_OF_ASC_NODE": 294.3983, "ARG_OF_PERICENTER": 14.5818, "MEAN_ANOMALY": 345.5407, "EPHEMERIS_TYPE": 0, "CLASSIFICATION_TYPE": "U", "NORAD_CAT_ID": 54234, "ELEMENT_SET_NO": 999, "REV_AT_EPOCH": 16172, "BSTAR": 6.9446214e-05, "MEAN_MOTION_DOT": 1.02e-06, "MEAN_MOTION_DDOT": 0}, "tle": {"line1": "1 54234U 22150A   25358.23271547  .00000102  00000+0  69446-4 0  9997", "line2": "2 54234  98.7477 294.3983 0001697  14.5818 345.5407 14.19527238161727"}}, "geometry": {"type": "Point", "coordinates": [120.81455472631923, 34.34919129148074]}}, {"type": "Feature", "properties": {"norad_id": 54743, "name": "METEOSAT-12 (MTG-I1)", "group": "weather", "lat": -0.6815538405896299, "lon": -46.05680943859708, "alt_km": 35781.843313941965, "timestamp": "2025-12-24T14:43:28.638765+00:00", "meta": {"OBJECT_NAME": "METEOSAT-12 (MTG-I1)", "OBJECT_ID": "2022-170C", "EPOCH": "2025-12-24T06:14:59.506944", "MEAN_MOTION": 1.00270845, "ECCENTRICITY": 0.00016026, "INCLINATION": 0.6987, "RA_OF_ASC_NODE": 25.505, "ARG_OF_PERICENTER": 240.7783, "MEAN_ANOMALY": 280.1831, "EPHEMERIS_TYPE": 0, "CLASSIFICATION_TYPE": "U", "NORAD_CAT_ID": 54743, "ELEMENT_SET_NO": 999, "REV_AT_EPOCH": 1122, "BSTAR": 0, "MEAN_MOTION_DOT": 1.3e-07, "MEAN_MOTION_DDOT": 0}, "tle": {"line1": "1 54743U 22170C   25358.26041096  .00000013  00000+0  00000+0 0  9998", "line2": "2 54743   0.6987  25.5050 0001602 240.7783 280.1831  1.00270845 11228"}}, "geometry": {"type": "Point", "coordinates": [-46.05680943859708, -0.6815538405896299]}}, {"type": "Feature", "properties": {"norad_id": 55973, "name": "TIANMU-1 03", "group": "weather", "lat": -38.33297141998718, "lon": -24.389182864921153, "alt_km": 451.4499914364924, "timestamp": "2025-12-24T14:43:28.638782+00:00", "meta": {"OBJECT_NAME": "TIANMU-1 03", "OBJECT_ID": "2023-039A", "EPOCH": "2025-12-24T05:59:16.952928", "MEAN_MOTION": 15.41251862, "ECCENTRICITY": 0.00038332, "INCLINATION": 97.5113, "RA_OF_ASC_NODE": 161.225, "ARG_OF_PERICENTER": 27.6552, "MEAN_ANOMALY": 332.4897, "EPHEMERIS_TYPE": 0, "CLASSIFICATION_TYPE": "U", "NORAD_CAT_ID": 55973, "ELEMENT_SET_NO": 999, "REV_AT_EPOCH": 15383, "BSTAR": 0.00041499893, "MEAN_MOTION_DOT": 0.00017188, "MEAN_MOTION_DDOT": 0}, "tle": {"line1": "1 55973U 23039A   25358.24950177  .00017188  00000+0  41500-3 0  9991", "line2": "2 55973  97.5113 161.2250 0003833  27.6552 332.4897 15.41251862153839"}}, "geometry": {"type": "Point", "coordinates": [-24.389182864921153, -38.33297141998718]}}, {"type": "Feature", "properties": {"norad_id": 55974, "name": "TIANMU-1 04", "group": "weather", "lat": -12.929251191989803, "lon": 162.51970996012022, "alt_km": 443.43370519467953, "timestamp": "2025-12-24T14:43:28.638800+00:00", "meta": {"OBJECT_NAME": "TIANMU-1 04", "OBJECT_ID": "2023-039B", "EPOCH": "2025-12-24T06:59:30.674400", "MEAN_MOTION": 15.41596371, "ECCENTRICITY": 0.0004446, "INCLINATION": 97.5046, "RA_OF_ASC_NODE": 160.4543, "ARG_OF_PERICENTER": 20.7077, "MEAN_ANOMALY": 339.4349, "EPHEMERIS_TYPE": 0, "CLASSIFICATION_TYPE": "U", "NORAD_CAT_ID": 55974, "ELEMENT_SET_NO": 999, "REV_AT_EPOCH": 15384, "BSTAR": 0.00040512038, "MEAN_MOTION_DOT": 0.00016971, "MEAN_MOTION_DDOT": 0}, "tle": {"line1": "1 55974U 23039B   25358.29132725  .00016971  00000+0  40512-3 0  9999", "line2": "2 55974  97.5046 160.4543 0004446  20.7077 339.4349 15.41596371153845"}}, "geometry": {"type": "Point", "coordinates": [162.51970996012022, -12.929251191989803]}}, {"type": "Feature", "properties": {"norad_id": 55975, "name": "TIANMU-1 05", "group": "weather", "lat": 2.494077835576839, "lon": 160.94924903753923, "alt_km": 443.28147756750514, "timestamp": "2025-12-24T14:43:28.638817+00:00", "meta": {"OBJECT_NAME": "TIANMU-1 05", "OBJECT_ID": "2023-039C", "EPOCH": "2025-12-24T06:55:21.444960", "MEAN_MOTION": 15.41209821, "ECCENTRICITY": 0.00039902, "INCLINATION": 97.5092, "RA_OF_ASC_NODE": 160.9443, "ARG_OF_PERICENTER": 46.3231, "MEAN_ANOMALY": 313.8345, "EPHEMERIS_TYPE": 0, "CLASSIFICATION_TYPE": "U", "NORAD_CAT_ID": 55975, "ELEMENT_SET_NO": 999, "REV_AT_EPOCH": 15382, "BSTAR": 0.00040383758, "MEAN_MOTION_DOT": 0.000167, "MEAN_MOTION_DDOT": 0}, "tle": {"line1": "1 55975U 23039C   25358.28844265  .00016700  00000+0  40384-3 0  9995", "line2": "2 55975  97.5092 160.9443 0003990  46.3231 313.8345 15.41209821153821"}}, "geometry": {"type": "Point", "coordinates": [160.94924903753923, 2.494077835576839]}}, {"type": "Feature", "properties": {"norad_id": 55976, "name": "TIANMU-1 06", "group": "weather", "lat": -22.692454694127456, "lon": 164.9156395041921, "alt_km": 445.3839330809142, "timestamp": "2025-12-24T14:43:28.638834+00:00", "meta": {"OBJECT_NAME": "TIANMU-1 06", "OBJECT_ID": "2023-039D", "EPOCH": "2025-12-24T07:02:05.193024", "MEAN_MOTION": 15.41647486, "ECCENTRICITY": 0.0004233, "INCLINATION": 97.5103, "RA_OF_ASC_NODE": 161.4236, "ARG_OF_PERICENTER": 40.4568, "MEAN_ANOMALY": 319.6993, "EPHEMERIS_TYPE": 0, "CLASSIFICATION_TYPE": "U", "NORAD_CAT_ID": 55976, "ELEMENT_SET_NO": 999, "REV_AT_EPOCH": 15384, "BSTAR": 0.00040145901, "MEAN_MOTION_DOT": 0.00016845, "MEAN_MOTION_DDOT": 0}, "tle": {"line1": "1 55976U 23039D   25358.29311566  .00016845  00000+0  40146-3 0  9996", "line2": "2 55976  97.5103 161.4236 0004233  40.4568 319.6993 15.41647486153848"}}, "geometry": {"type": "Point", "coordinates": [164.9156395041921, -22.692454694127456]}}, {"type": "Feature", "properties": {"norad_id": 56232, "name": "FENGYUN 3G", "group": "weather", "lat": -29.383255354469828, "lon": 137.93064711052403, "alt_km": 412.0272399486048, "timestamp": "2025-12-24T14:43:28.638853+00:00", "meta": {"OBJECT_NAME": "FENGYUN 3G", "OBJECT_ID": "2023-055A", "EPOCH": "2025-12-24T10:15:36.171936", "MEAN_MOTION": 15.52003311, "ECCENTRICITY": 0.0003875, "INCLINATION": 49.9918, "RA_OF_ASC_NODE": 167.1155, "ARG_OF_PERICENTER": 288.9301, "MEAN_ANOMALY": 71.1246, "EPHEMERIS_TYPE": 0, "CLASSIFICATION_TYPE": "U", "NORAD_CAT_ID": 56232, "ELEMENT_SET_NO": 999, "REV_AT_EPOCH": 15284, "BSTAR": 0.000503, "MEAN_MOTION_DOT": 0.00030538, "MEAN_MOTION_DDOT": 0}, "tle": {"line1": "1 56232U 23055A   25358.42750199  .00030538  00000+0  50300-3 0  9992", "line2": "2 56232  49.9918 167.1155 0003875 288.9301  71.1246 15.52003311152842"}}, "geometry": {"type": "Point", "coordinates": [137.93064711052403, -29.383255354469828]}}, {"type": "Feature", "properties": {"norad_id": 57166, "name": "METEOR-M2 3", "group": "weather", "lat": -62.41783067899387, "lon": -144.9690735169681, "alt_km": 818.8526430527254, "timestamp": "2025-12-24T14:43:28.638870+00:00", "meta": {"OBJECT_NAME": "METEOR-M2 3", "OBJECT_ID": "2023-091A", "EPOCH": "2025-12-24T06:50:18.066912", "MEAN_MOTION": 14.24027425, "ECCENTRICITY": 0.00032877, "INCLINATION": 98.6362, "RA_OF_ASC_NODE": 51.6218, "ARG_OF_PERICENTER": 333.0311, "MEAN_ANOMALY": 27.0697, "EPHEMERIS_TYPE": 0, "CLASSIFICATION_TYPE": "U", "NORAD_CAT_ID": 57166, "ELEMENT_SET_NO": 999, "REV_AT_EPOCH": 12962, "BSTAR": 2.2093923e-05, "MEAN_MOTION_DOT": 7e-08, "MEAN_MOTION_DDOT": 0}, "tle": {"line1": "1 57166U 23091A   25358.28493133  .00000007  00000+0  22094-4 0  9993", "line2": "2 57166  98.6362  51.6218 0003287 333.0311  27.0697 14.24027425129620"}}, "geometry": {"type": "Point", "coordinates": [-144.9690735169681, -62.41783067899387]}}, {"type": "Feature", "properties": {"norad_id": 57399, "name": "TIANMU-1 07", "group": "weather", "lat": -14.109314493721886, "lon": -133.6414551256105, "alt_km": 488.61394580314663, "timestamp": "2025-12-24T14:43:28.638886+00:00", "meta": {"OBJECT_NAME": "TIANMU-1 07", "OBJECT_ID": "2023-101A", "EPOCH": "2025-12-24T06:01:15.414240", "MEAN_MOTION": 15.28230584, "ECCENTRICITY": 0.000507, "INCLINATION": 97.2856, "RA_OF_ASC_NODE": 47.8467, "ARG_OF_PERICENTER": 52.0404, "MEAN_ANOMALY": 308.1293, "EPHEMERIS_TYPE": 0, "CLASSIFICATION_TYPE": "U", "NORAD_CAT_ID": 57399, "ELEMENT_SET_NO": 999, "REV_AT_EPOCH": 13491, "BSTAR": 0.00028294357, "MEAN_MOTION_DOT": 7.714e-05, "MEAN_MOTION_DDOT": 0}, "tle": {"line1": "1 57399U 23101A   25358.25087285  .00007714  00000+0  28294-3 0  9996", "line2": "2 57399  97.2856  47.8467 0005070  52.0404 308.1293 15.28230584134917"}}, "geometry": {"type": "Point", "coordinates": [-133.6414551256105, -14.109314493721886]}}, {"type": "Feature", "properties": {"norad_id": 57400, "name": "TIANMU-1 08", "group": "weather", "lat": 14.7773362648191, "lon": 46.063557924995685, "alt_km": 478.2022488993798, "timestamp": "2025-12-24T14:43:28.638903+00:00", "meta": {"OBJECT_NAME": "TIANMU-1 08", "OBJECT_ID": "2023-101B", "EPOCH": "2025-12-24T06:48:08.339040", "MEAN_MOTION": 15.28213074, "ECCENTRICITY": 0.00069905, "INCLINATION": 97.2845, "RA_OF_ASC_NODE": 47.6745, "ARG_OF_PERICENTER": 51.3078, "MEAN_ANOMALY": 308.8786, "EPHEMERIS_TYPE": 0, "CLASSIFICATION_TYPE": "U", "NORAD_CAT_ID": 57400, "ELEMENT_SET_NO": 999, "REV_AT_EPOCH": 13491, "BSTAR": 0.00029366725, "MEAN_MOTION_DOT": 8.007e-05, "MEAN_MOTION_DDOT": 0}, "tle": {"line1": "1 57400U 23101B   25358.28342985  .00008007  00000+0  29367-3 0  9991", "line2": "2 57400  97.2845  47.6745 0006990  51.3078 308.8786 15.28213074134915"}}, "geometry": {"type": "Point", "coordinates": [46.063557924995685, 14.7773362648191]}}]}